start=new Date('2022-12-08T00:00:00.000Z').valueOf();
sats=[{"MEAN_MOTION":"15.76682409","NORAD_CAT_ID":"46776","APOAPSIS":"340.985","TIME_SYSTEM":"UTC","COUNTRY_CODE":"US","TLE_LINE2":"2 46776  53.0444 175.2462 0001689 112.9888 247.1310 15.76682409118400","RA_OF_ASC_NODE":"175.2462","ELEMENT_SET_NO":"999","FILE":"3683780","SEMIMAJOR_AXIS":"6717.985","OBJECT_NAME":"STARLINK-1946","DECAY_DATE":null,"EPHEMERIS_TYPE":"0","GP_ID":"219711280","PERIOD":"91.331","EPOCH":"2022-12-07T12:50:45.442752","MEAN_MOTION_DOT":"0.00002657","MEAN_ELEMENT_THEORY":"SGP4","REV_AT_EPOCH":"11840","PERIAPSIS":"338.715","BSTAR":"0.00002027200000","TLE_LINE1":"1 46776U 20074AP  22341.53524818  .00002657  00000-0  20272-4 0  9998","LAUNCH_DATE":"2020-10-24","CENTER_NAME":"EARTH","REF_FRAME":"TEME","SITE":"AFETR","RCS_SIZE":"LARGE","MEAN_MOTION_DDOT":"0.0000000000000","OBJECT_ID":"2020-074AP","ECCENTRICITY":"0.00016890","CLASSIFICATION_TYPE":"U","OBJECT_TYPE":"PAYLOAD","MEAN_ANOMALY":"247.1310","ARG_OF_PERICENTER":"112.9888","INCLINATION":"53.0444"},{"OBJECT_NAME":"STARLINK-1798","DECAY_DATE":null,"SEMIMAJOR_AXIS":"6925.367","FILE":"3684212","ELEMENT_SET_NO":"999","RA_OF_ASC_NODE":"245.8998","TLE_LINE2":"2 46779  53.0544 245.8998 0001505  66.4200 293.6947 15.06393876117715","COUNTRY_CODE":"US","TIME_SYSTEM":"UTC","APOAPSIS":"548.275","NORAD_CAT_ID":"46779","MEAN_MOTION":"15.06393876","BSTAR":"-0.00007734300000","PERIAPSIS":"546.190","REV_AT_EPOCH":"11771","MEAN_ELEMENT_THEORY":"SGP4","MEAN_MOTION_DOT":"-0.00001433","EPOCH":"2022-12-07T10:29:09.169152","PERIOD":"95.593","GP_ID":"219739196","EPHEMERIS_TYPE":"0","CLASSIFICATION_TYPE":"U","ECCENTRICITY":"0.00015050","MEAN_MOTION_DDOT":"0.0000000000000","OBJECT_ID":"2020-074AS","RCS_SIZE":"LARGE","SITE":"AFETR","REF_FRAME":"TEME","CENTER_NAME":"EARTH","LAUNCH_DATE":"2020-10-24","TLE_LINE1":"1 46779U 20074AS  22341.43691168 -.00001433  00000-0 -77343-4 0  9997","INCLINATION":"53.0544","ARG_OF_PERICENTER":"66.4200","MEAN_ANOMALY":"293.6947","OBJECT_TYPE":"PAYLOAD"},{"FILE":"3684212","ELEMENT_SET_NO":"999","RA_OF_ASC_NODE":"244.4646","TLE_LINE2":"2 46780  53.0542 244.4646 0001925  47.2813 312.8338 15.06396299117768","OBJECT_NAME":"STARLINK-1832","DECAY_DATE":null,"SEMIMAJOR_AXIS":"6925.360","APOAPSIS":"548.558","NORAD_CAT_ID":"46780","MEAN_MOTION":"15.06396299","COUNTRY_CODE":"US","TIME_SYSTEM":"UTC","MEAN_ELEMENT_THEORY":"SGP4","MEAN_MOTION_DOT":"-0.00000155","EPOCH":"2022-12-07T18:10:54.999264","BSTAR":"0.00000852330000","PERIAPSIS":"545.892","REV_AT_EPOCH":"11776","GP_ID":"219737947","EPHEMERIS_TYPE":"0","PERIOD":"95.592","RCS_SIZE":"LARGE","SITE":"AFETR","CLASSIFICATION_TYPE":"U","ECCENTRICITY":"0.00019250","OBJECT_ID":"2020-074AT","MEAN_MOTION_DDOT":"0.0000000000000","TLE_LINE1":"1 46780U 20074AT  22341.75758101 -.00000155  00000-0  85233-5 0  9992","REF_FRAME":"TEME","CENTER_NAME":"EARTH","LAUNCH_DATE":"2020-10-24","INCLINATION":"53.0542","ARG_OF_PERICENTER":"47.2813","MEAN_ANOMALY":"312.8338","OBJECT_TYPE":"PAYLOAD"},{"TLE_LINE1":"1 46781U 20074AU  22341.84143840  .00001093  00000-0  92259-4 0  9997","REF_FRAME":"TEME","LAUNCH_DATE":"2020-10-24","CENTER_NAME":"EARTH","RCS_SIZE":"LARGE","SITE":"AFETR","ECCENTRICITY":"0.00015280","CLASSIFICATION_TYPE":"U","OBJECT_ID":"2020-074AU","MEAN_MOTION_DDOT":"0.0000000000000","MEAN_ANOMALY":"292.6088","ARG_OF_PERICENTER":"67.5063","OBJECT_TYPE":"PAYLOAD","INCLINATION":"53.0542","NORAD_CAT_ID":"46781","APOAPSIS":"548.286","MEAN_MOTION":"15.06395390","TIME_SYSTEM":"UTC","COUNTRY_CODE":"US","FILE":"3684212","TLE_LINE2":"2 46781  53.0542 254.0846 0001528  67.5063 292.6088 15.06395390117644","RA_OF_ASC_NODE":"254.0846","ELEMENT_SET_NO":"999","OBJECT_NAME":"STARLINK-1834","DECAY_DATE":null,"SEMIMAJOR_AXIS":"6925.363","EPHEMERIS_TYPE":"0","GP_ID":"219738196","PERIOD":"95.592","MEAN_ELEMENT_THEORY":"SGP4","EPOCH":"2022-12-07T20:11:40.277760","MEAN_MOTION_DOT":"0.00001093","BSTAR":"0.00009225900000","REV_AT_EPOCH":"11764","PERIAPSIS":"546.169"},{"SEMIMAJOR_AXIS":"6925.356","OBJECT_NAME":"STARLINK-1835","DECAY_DATE":null,"TLE_LINE2":"2 46782  53.0541 244.2125 0001748  64.5804 295.5365 15.06397596117773","ELEMENT_SET_NO":"999","RA_OF_ASC_NODE":"244.2125","FILE":"3684212","TIME_SYSTEM":"UTC","COUNTRY_CODE":"US","MEAN_MOTION":"15.06397596","NORAD_CAT_ID":"46782","APOAPSIS":"548.431","REV_AT_EPOCH":"11777","PERIAPSIS":"546.010","BSTAR":"0.00008010700000","EPOCH":"2022-12-07T19:30:31.645728","MEAN_MOTION_DOT":"0.00000912","MEAN_ELEMENT_THEORY":"SGP4","PERIOD":"95.592","EPHEMERIS_TYPE":"0","GP_ID":"219738447","MEAN_MOTION_DDOT":"0.0000000000000","OBJECT_ID":"2020-074AV","ECCENTRICITY":"0.00017480","CLASSIFICATION_TYPE":"U","SITE":"AFETR","RCS_SIZE":"LARGE","LAUNCH_DATE":"2020-10-24","CENTER_NAME":"EARTH","REF_FRAME":"TEME","TLE_LINE1":"1 46782U 20074AV  22341.81286627  .00000912  00000-0  80107-4 0  9994","INCLINATION":"53.0541","OBJECT_TYPE":"PAYLOAD","MEAN_ANOMALY":"295.5365","ARG_OF_PERICENTER":"64.5804"},{"MEAN_ELEMENT_THEORY":"SGP4","EPOCH":"2022-12-07T18:16:14.191968","MEAN_MOTION_DOT":"-0.00000669","BSTAR":"-0.00002600800000","REV_AT_EPOCH":"11776","PERIAPSIS":"546.115","EPHEMERIS_TYPE":"0","GP_ID":"219738696","PERIOD":"95.593","FILE":"3684212","TLE_LINE2":"2 46783  53.0535 244.4379 0001629  58.4033 301.7115 15.06390233117767","ELEMENT_SET_NO":"999","RA_OF_ASC_NODE":"244.4379","OBJECT_NAME":"STARLINK-1851","DECAY_DATE":null,"SEMIMAJOR_AXIS":"6925.378","NORAD_CAT_ID":"46783","APOAPSIS":"548.372","MEAN_MOTION":"15.06390233","TIME_SYSTEM":"UTC","COUNTRY_CODE":"US","INCLINATION":"53.0535","MEAN_ANOMALY":"301.7115","ARG_OF_PERICENTER":"58.4033","OBJECT_TYPE":"PAYLOAD","RCS_SIZE":"LARGE","SITE":"AFETR","ECCENTRICITY":"0.00016290","CLASSIFICATION_TYPE":"U","OBJECT_ID":"2020-074AW","MEAN_MOTION_DDOT":"0.0000000000000","TLE_LINE1":"1 46783U 20074AW  22341.76127537 -.00000669  00000-0 -26008-4 0  9994","REF_FRAME":"TEME","LAUNCH_DATE":"2020-10-24","CENTER_NAME":"EARTH"},{"REV_AT_EPOCH":"11771","PERIAPSIS":"545.952","BSTAR":"-0.00002740600000","EPOCH":"2022-12-07T10:22:28.243776","MEAN_MOTION_DOT":"-0.00000690","MEAN_ELEMENT_THEORY":"SGP4","PERIOD":"95.593","EPHEMERIS_TYPE":"0","GP_ID":"219737447","SEMIMAJOR_AXIS":"6925.378","DECAY_DATE":null,"OBJECT_NAME":"STARLINK-1882","TLE_LINE2":"2 46784  53.0553 245.8976 0001864  61.5186 298.5991 15.06390498117714","ELEMENT_SET_NO":"999","RA_OF_ASC_NODE":"245.8976","FILE":"3684212","TIME_SYSTEM":"UTC","COUNTRY_CODE":"US","MEAN_MOTION":"15.06390498","NORAD_CAT_ID":"46784","APOAPSIS":"548.534","INCLINATION":"53.0553","OBJECT_TYPE":"PAYLOAD","MEAN_ANOMALY":"298.5991","ARG_OF_PERICENTER":"61.5186","MEAN_MOTION_DDOT":"0.0000000000000","OBJECT_ID":"2020-074AX","ECCENTRICITY":"0.00018640","CLASSIFICATION_TYPE":"U","SITE":"AFETR","RCS_SIZE":"LARGE","LAUNCH_DATE":"2020-10-24","CENTER_NAME":"EARTH","REF_FRAME":"TEME","TLE_LINE1":"1 46784U 20074AX  22341.43227134 -.00000690  00000-0 -27406-4 0  9990"},{"COUNTRY_CODE":"US","TIME_SYSTEM":"UTC","APOAPSIS":"548.407","NORAD_CAT_ID":"46785","MEAN_MOTION":"15.06391967","DECAY_DATE":null,"OBJECT_NAME":"STARLINK-1883","SEMIMAJOR_AXIS":"6925.373","FILE":"3684212","RA_OF_ASC_NODE":"244.4823","ELEMENT_SET_NO":"999","TLE_LINE2":"2 46785  53.0547 244.4823 0001688  67.5625 292.5543 15.06391967117766","PERIOD":"95.593","GP_ID":"219737697","EPHEMERIS_TYPE":"0","BSTAR":"-0.00002098700000","PERIAPSIS":"546.069","REV_AT_EPOCH":"11776","MEAN_ELEMENT_THEORY":"SGP4","MEAN_MOTION_DOT":"-0.00000594","EPOCH":"2022-12-07T18:00:18.346176","REF_FRAME":"TEME","CENTER_NAME":"EARTH","LAUNCH_DATE":"2020-10-24","TLE_LINE1":"1 46785U 20074AY  22341.75021234 -.00000594  00000-0 -20987-4 0  9999","CLASSIFICATION_TYPE":"U","ECCENTRICITY":"0.00016880","MEAN_MOTION_DDOT":"0.0000000000000","OBJECT_ID":"2020-074AY","RCS_SIZE":"LARGE","SITE":"AFETR","ARG_OF_PERICENTER":"67.5625","MEAN_ANOMALY":"292.5543","OBJECT_TYPE":"PAYLOAD","INCLINATION":"53.0547"},{"INCLINATION":"53.0544","ARG_OF_PERICENTER":"72.9595","MEAN_ANOMALY":"287.1554","OBJECT_TYPE":"PAYLOAD","CLASSIFICATION_TYPE":"U","ECCENTRICITY":"0.00014590","MEAN_MOTION_DDOT":"0.0000000000000","OBJECT_ID":"2020-074AZ","RCS_SIZE":"LARGE","SITE":"AFETR","REF_FRAME":"TEME","CENTER_NAME":"EARTH","LAUNCH_DATE":"2020-10-24","TLE_LINE1":"1 46786U 20074AZ  22341.39821426 -.00000983  00000-0 -47122-4 0  9993","BSTAR":"-0.00004712200000","PERIAPSIS":"546.239","REV_AT_EPOCH":"11799","MEAN_ELEMENT_THEORY":"SGP4","MEAN_MOTION_DOT":"-0.00000983","EPOCH":"2022-12-07T09:33:25.712064","PERIOD":"95.593","GP_ID":"219738948","EPHEMERIS_TYPE":"0","OBJECT_NAME":"STARLINK-1893","DECAY_DATE":null,"SEMIMAJOR_AXIS":"6925.384","FILE":"3684212","RA_OF_ASC_NODE":"226.0792","ELEMENT_SET_NO":"999","TLE_LINE2":"2 46786  53.0544 226.0792 0001459  72.9595 287.1554 15.06388303117994","COUNTRY_CODE":"US","TIME_SYSTEM":"UTC","APOAPSIS":"548.260","NORAD_CAT_ID":"46786","MEAN_MOTION":"15.06388303"},{"PERIOD":"95.593","EPHEMERIS_TYPE":"0","GP_ID":"219739197","REV_AT_EPOCH":"11799","PERIAPSIS":"546.120","BSTAR":"-0.00014169000000","EPOCH":"2022-12-07T09:22:48.846432","MEAN_MOTION_DOT":"-0.00002391","MEAN_ELEMENT_THEORY":"SGP4","TIME_SYSTEM":"UTC","COUNTRY_CODE":"US","MEAN_MOTION":"15.06391477","NORAD_CAT_ID":"46787","APOAPSIS":"548.360","SEMIMAJOR_AXIS":"6925.375","DECAY_DATE":null,"OBJECT_NAME":"STARLINK-1899","TLE_LINE2":"2 46787  53.0559 226.1063 0001617  71.2945 288.8219 15.06391477117992","RA_OF_ASC_NODE":"226.1063","ELEMENT_SET_NO":"999","FILE":"3684212","OBJECT_TYPE":"PAYLOAD","MEAN_ANOMALY":"288.8219","ARG_OF_PERICENTER":"71.2945","INCLINATION":"53.0559","LAUNCH_DATE":"2020-10-24","CENTER_NAME":"EARTH","REF_FRAME":"TEME","TLE_LINE1":"1 46787U 20074BA  22341.39084313 -.00002391  00000-0 -14169-3 0  9999","MEAN_MOTION_DDOT":"0.0000000000000","OBJECT_ID":"2020-074BA","ECCENTRICITY":"0.00016170","CLASSIFICATION_TYPE":"U","SITE":"AFETR","RCS_SIZE":"LARGE"}];
